ONEWEB-0721             
1 56725U 23068R   26168.51818848  .00000023  00000+0  19752-4 0  9992
2 56725  86.6766  85.4107 0001886  77.7448 282.3896 13.22469350157984
ONEWEB-0015             
1 61594U 24188A   26168.61463710 -.00000506  00000+0 -14627-2 0  9993
2 61594  87.8885  21.0078 0002173  73.7313 286.4054 13.11415475 84515
ONEWEB-0687             
1 61595U 24188B   26168.53452675  .00000025  00000+0  31823-4 0  9996
2 61595  87.9127   5.8075 0002355  86.7965 273.3436 13.17648367 85943
ONEWEB-0688             
1 61596U 24188C   26168.48727811  .00000011  00000+0 -43895-5 0  9997
2 61596  87.9127   5.8165 0002675  63.8846 296.2561 13.17649156 85932
ONEWEB-0689             
1 61597U 24188D   26168.49596139  .00000466  00000+0  12796-2 0  9992
2 61597  87.8900  20.9897 0002068  90.9972 269.1393 13.11419171 84496
ONEWEB-0690             
1 61598U 24188E   26168.50614702  .00000484  00000+0  13305-2 0  9999
2 61598  87.8894  20.9993 0001235  74.2464 285.8800 13.11415199 84676
ONEWEB-0691             
1 61599U 24188F   26168.50106529  .00000558  00000+0  15387-2 0  9997
2 61599  87.8905  20.9089 0002105  79.3490 280.7875 13.11417129 84523
ONEWEB-0692             
1 61600U 24188G   26168.59769447  .00000013  00000+0  78520-6 0  9991
2 61600  87.8884  21.0031 0001902 110.5630 249.5702 13.11414200 84528
ONEWEB-0693             
1 61601U 24188H   26168.49908795  .00000005  00000+0 -20693-4 0  9990
2 61601  87.9124   5.8343 0001284  66.8261 293.3006 13.17648337 85924
ONEWEB-0695             
1 61602U 24188J   26168.49767193  .00000487  00000+0  13395-2 0  9998
2 61602  87.8885  21.0149 0002061  98.9667 261.1694 13.11417021 84509
ONEWEB-0697             
1 61603U 24188K   26168.60616533 -.00000241  00000+0 -71652-3 0  9994
2 61603  87.8883  20.9834 0001803 110.5283 249.6039 13.11414089 84500
ONEWEB-0698             
1 61604U 24188L   26168.50784022  .00000499  00000+0  13711-2 0  9997
2 61604  87.8883  21.0172 0000947 120.9511 239.1711 13.11415105 84517
ONEWEB-0699             
1 61605U 24188M   26168.59727430  .00001629  00000+0  46270-2 0  9999
2 61605  87.8835  36.1847 0001509 105.0904 255.0390 13.10391583 83360
ONEWEB-0700             
1 61606U 24188N   26168.59893982  .00001268  00000+0  35956-2 0  9994
2 61606  87.8851  36.0933 0001907 103.0845 257.0496 13.10387513 83354
ONEWEB-0701             
1 61607U 24188P   26168.61557262  .00000228  00000+0  61756-3 0  9999
2 61607  87.8832  36.1803 0001636 109.7720 250.3584 13.10371425 83365
ONEWEB-0702             
1 61608U 24188Q   26168.55360510 -.00000248  00000+0 -73594-3 0  9998
2 61608  87.8905  20.9140 0002095 114.9237 245.2109 13.11420365 84538
ONEWEB-0704             
1 61609U 24188R   26168.60394191  .00000120  00000+0  30730-3 0  9999
2 61609  87.8839  36.1720 0002283 110.8107 249.3266 13.10376453 83342
ONEWEB-0705             
1 61610U 24188S   26168.60891350  .00000322  00000+0  88613-3 0  9997
2 61610  87.8845  36.1765 0002687  96.8996 263.2437 13.10379555 75518
ONEWEB-0706             
1 61611U 24188T   26168.13581136  .00001370  00000+0  38873-2 0  9990
2 61611  87.8843  36.2759 0002219  98.1719 261.9660 13.10388572 83375
ONEWEB-0707             
1 61612U 24188U   26168.60061348  .00000232  00000+0  62785-3 0  9997
2 61612  87.8845  36.1773 0002001  99.0364 261.0990 13.10378955 83379
ONEWEB-0708             
1 61613U 24188V   26168.61892031 -.00001792  00000+0 -51712-2 0  9991
2 61613  87.8842  36.1922 0002673  83.4299 276.7133 13.10352864 83353
