OBJECT_NAME,OBJECT_ID,EPOCH,MEAN_MOTION,ECCENTRICITY,INCLINATION,RA_OF_ASC_NODE,ARG_OF_PERICENTER,MEAN_ANOMALY,EPHEMERIS_TYPE,CLASSIFICATION_TYPE,NORAD_CAT_ID,ELEMENT_SET_NO,REV_AT_EPOCH,BSTAR,MEAN_MOTION_DOT,MEAN_MOTION_DDOT
ONEWEB-0721,2023-068R,2026-06-17T12:26:11.484672,13.22469350,.00018868,86.6766,85.4107,77.7448,282.3896,0,U,56725,999,15798,.19751546E-4,.23E-6,0
ONEWEB-0015,2024-188A,2026-06-17T14:45:04.645440,13.11415475,.00021739,87.8885,21.0078,73.7313,286.4054,0,U,61594,999,8451,-.14626788E-2,-.506E-5,0
ONEWEB-0687,2024-188B,2026-06-17T12:49:43.111200,13.17648367,.00023553,87.9127,5.8075,86.7965,273.3436,0,U,61595,999,8594,.31823367E-4,.25E-6,0
ONEWEB-0688,2024-188C,2026-06-17T11:41:40.828704,13.17649156,.00026757,87.9127,5.8165,63.8846,296.2561,0,U,61596,999,8593,-.4389508E-5,.11E-6,0
ONEWEB-0689,2024-188D,2026-06-17T11:54:11.064096,13.11419171,.00020688,87.8900,20.9897,90.9972,269.1393,0,U,61597,999,8449,.12795687E-2,.466E-5,0
ONEWEB-0690,2024-188E,2026-06-17T12:08:51.102528,13.11415199,.00012355,87.8894,20.9993,74.2464,285.8800,0,U,61598,999,8467,.13305139E-2,.484E-5,0
ONEWEB-0691,2024-188F,2026-06-17T12:01:32.041056,13.11417129,.00021054,87.8905,20.9089,79.3490,280.7875,0,U,61599,999,8452,.15387324E-2,.558E-5,0
ONEWEB-0692,2024-188G,2026-06-17T14:20:40.802208,13.11414200,.00019024,87.8884,21.0031,110.5630,249.5702,0,U,61600,999,8452,.785202E-6,.13E-6,0
ONEWEB-0693,2024-188H,2026-06-17T11:58:41.198880,13.17648337,.00012843,87.9124,5.8343,66.8261,293.3006,0,U,61601,999,8592,-.20692542E-4,.5E-7,0
ONEWEB-0695,2024-188J,2026-06-17T11:56:38.854752,13.11417021,.00020619,87.8885,21.0149,98.9667,261.1694,0,U,61602,999,8450,.13394886E-2,.487E-5,0
ONEWEB-0697,2024-188K,2026-06-17T14:32:52.684512,13.11414089,.00018033,87.8883,20.9834,110.5283,249.6039,0,U,61603,999,8450,-.71651655E-3,-.241E-5,0
ONEWEB-0698,2024-188L,2026-06-17T12:11:17.395008,13.11415105,.00009471,87.8883,21.0172,120.9511,239.1711,0,U,61604,999,8451,.1371094E-2,.499E-5,0
ONEWEB-0699,2024-188M,2026-06-17T14:20:04.499520,13.10391583,.00015093,87.8835,36.1847,105.0904,255.0390,0,U,61605,999,8336,.46270257E-2,.1629E-4,0
ONEWEB-0700,2024-188N,2026-06-17T14:22:28.400448,13.10387513,.00019072,87.8851,36.0933,103.0845,257.0496,0,U,61606,999,8335,.35956467E-2,.1268E-4,0
ONEWEB-0701,2024-188P,2026-06-17T14:46:25.474368,13.10371425,.00016369,87.8832,36.1803,109.7720,250.3584,0,U,61607,999,8336,.61756466E-3,.228E-5,0
ONEWEB-0702,2024-188Q,2026-06-17T13:17:11.480640,13.11420365,.00020956,87.8905,20.9140,114.9237,245.2109,0,U,61608,999,8453,-.73594465E-3,-.248E-5,0
ONEWEB-0704,2024-188R,2026-06-17T14:29:40.581024,13.10376453,.00022839,87.8839,36.1720,110.8107,249.3266,0,U,61609,999,8334,.30730066E-3,.12E-5,0
ONEWEB-0705,2024-188S,2026-06-17T14:36:50.126400,13.10379555,.00026874,87.8845,36.1765,96.8996,263.2437,0,U,61610,999,7551,.88612623E-3,.322E-5,0
ONEWEB-0706,2024-188T,2026-06-17T03:15:34.101504,13.10388572,.00022194,87.8843,36.2759,98.1719,261.9660,0,U,61611,999,8337,.38873271E-2,.137E-4,0
ONEWEB-0707,2024-188U,2026-06-17T14:24:53.004672,13.10378955,.00020011,87.8845,36.1773,99.0364,261.0990,0,U,61612,999,8337,.62784812E-3,.232E-5,0
ONEWEB-0708,2024-188V,2026-06-17T14:51:14.714784,13.10352864,.00026737,87.8842,36.1922,83.4299,276.7133,0,U,61613,999,8335,-.51711751E-2,-.1792E-4,0
